NORAD_CAT_ID,OBJECT_NAME,OBJECT_TYPE,EPOCH,MEAN_MOTION,ECCENTRICITY,INCLINATION,RA_OF_ASC_NODE,ARG_OF_PERICENTER,MEAN_ANOMALY,BSTAR,MEAN_MOTION_DOT,MEAN_MOTION_DDOT,TLE_LINE0,TLE_LINE1,TLE_LINE2,SEMIMAJOR_AXIS,PERIOD,APOGEE,PERIGEE,DECAYED
53975.0,STARLINK-5137,PAYLOAD,2024-02-03 07:40:31,15.08842924,0.0001646,53.2169,54.5753,85.8968,274.2212,5.3555e-05,5.64e-06,0.0,0 STARLINK-5137,1 53975U 22125M   24034.31980743  .00000564  00000-0  53555-4 0  9991,2 53975  53.2169  54.5753 0001646  85.8968 274.2212 15.08842924 73853,6917.871,95.437,540.875,538.598,0.0
53975.0,STARLINK-5137,PAYLOAD,2024-02-03 18:48:13,15.08840757,0.0001712,53.2171,52.4949,81.372,278.7466,2.3687e-05,8.9e-07,0.0,0 STARLINK-5137,1 53975U 22125M   24034.78348969  .00000089  00000-0  23687-4 0  9995,2 53975  53.2171  52.4949 0001712  81.3720 278.7466 15.08840757 73921,6917.878,95.438,540.927,538.559,0.0
53975.0,STARLINK-5137,PAYLOAD,2024-02-04 04:20:32,15.08843937,0.0001679,53.2172,50.7113,89.95,270.1685,-2.729e-05,-7.22e-06,0.0,0 STARLINK-5137,1 53975U 22125M   24035.18092890 -.00000722  00000-0 -27290-4 0  9999,2 53975  53.2172  50.7113 0001679  89.9500 270.1685 15.08843937 74055,6917.868,95.437,540.895,538.572,0.0
53975.0,STARLINK-5137,PAYLOAD,2024-02-04 10:42:04,15.08847202,0.0001553,53.2166,49.52,90.8249,269.2921,-4.5597e-06,-3.61e-06,0.0,0 STARLINK-5137,1 53975U 22125M   24035.44588518 -.00000361  00000-0 -45597-5 0  9995,2 53975  53.2166  49.5200 0001553  90.8249 269.2921 15.08847202 74021,6917.858,95.437,540.798,538.649,0.0
53975.0,STARLINK-5137,PAYLOAD,2024-02-05 07:22:05,15.08841836,0.0001595,53.2171,45.655,81.729,278.3882,7.6087e-06,-1.67e-06,0.0,0 STARLINK-5137,1 53975U 22125M   24036.30700899 -.00000167  00000-0  76087-5 0  9990,2 53975  53.2171  45.6550 0001595  81.7290 278.3882 15.08841836 74229,6917.875,95.437,540.843,538.636,0.0
53975.0,STARLINK-5137,PAYLOAD,2024-02-06 07:12:52,15.08843945,0.000159,53.2175,41.195,91.9038,268.2136,7.6201e-05,9.25e-06,0.0,0 STARLINK-5137,1 53975U 22125M   24037.30060602  .00000925  00000-0  76201-4 0  9990,2 53975  53.2175  41.1950 0001590  91.9038 268.2136 15.08843945 74308,6917.868,95.437,540.833,538.633,0.0
53975.0,STARLINK-5137,PAYLOAD,2024-02-07 03:52:54,15.08833928,0.0001722,53.2183,37.3299,112.3785,247.7389,-2.0139e-06,-3.2e-06,0.0,0 STARLINK-5137,1 53975U 22125M   24038.16173662 -.00000320  00000-0 -20139-5 0  9997,2 53975  53.2183  37.3299 0001722 112.3785 247.7389 15.08833928 74508,6917.899,95.438,540.955,538.573,0.0
53975.0,STARLINK-5137,PAYLOAD,2024-02-07 10:14:26,15.08835042,0.0001648,53.2179,36.1372,111.3175,248.7993,-7.6784e-06,-4.1e-06,0.0,0 STARLINK-5137,1 53975U 22125M   24038.42669673 -.00000410  00000-0 -76784-5 0  9995,2 53975  53.2179  36.1372 0001648 111.3175 248.7993 15.08835042 74478,6917.896,95.438,540.901,538.62,0.0
53975.0,STARLINK-5137,PAYLOAD,2024-02-07 16:35:59,15.08835855,0.0001336,53.2172,34.9475,79.3521,280.7621,4.6066e-05,4.45e-06,0.0,0 STARLINK-5137,1 53975U 22125M   24038.69165678  .00000445  00000-0  46066-4 0  9995,2 53975  53.2172  34.9475 0001336  79.3521 280.7621 15.08835855 74514,6917.893,95.438,540.682,538.834,0.0
53975.0,STARLINK-5137,PAYLOAD,2024-02-08 08:29:50,15.08843365,0.0001632,53.2187,31.9733,85.9282,274.1897,2.2002e-05,6.2e-07,0.0,0 STARLINK-5137,1 53975U 22125M   24039.35405457  .00000062  00000-0  22002-4 0  9990,2 53975  53.2187  31.9733 0001632  85.9282 274.1897 15.08843365 74685,6917.87,95.437,540.864,538.606,0.0
53975.0,STARLINK-5137,PAYLOAD,2024-02-09 06:45:14,15.08843524,0.0001637,53.2191,27.8101,81.6719,278.4459,0.00012678,1.73e-05,0.0,0 STARLINK-5137,1 53975U 22125M   24040.28141375  .00001730  00000-0  12678-3 0  9990,2 53975  53.2191  27.8101 0001637  81.6719 278.4459 15.08843524 74752,6917.87,95.437,540.867,538.602,0.0
53975.0,STARLINK-5137,PAYLOAD,2024-02-10 03:25:15,15.08836357,0.0001567,53.2183,23.9465,91.2669,268.8503,3.1183e-05,2.08e-06,0.0,0 STARLINK-5137,1 53975U 22125M   24041.14254150  .00000208  00000-0  31183-4 0  9994,2 53975  53.2183  23.9465 0001567  91.2669 268.8503 15.08836357 74957,6917.892,95.438,540.841,538.672,0.0
53975.0,STARLINK-5137,PAYLOAD,2024-02-10 08:11:24,15.08845846,0.0001537,53.2183,23.0526,86.9462,273.1706,4.9853e-05,5.06e-06,0.0,0 STARLINK-5137,1 53975U 22125M   24041.34125604  .00000506  00000-0  49853-4 0  9991,2 53975  53.2183  23.0526 0001537  86.9462 273.1706 15.08845846 74985,6917.863,95.437,540.791,538.664,0.0
53975.0,STARLINK-5137,PAYLOAD,2024-02-11 08:02:10,15.0885639,0.0001779,53.219,18.5898,116.9999,243.1175,5.0868e-05,5.22e-06,0.0,0 STARLINK-5137,1 53975U 22125M   24042.33484605  .00000522  00000-0  50868-4 0  9996,2 53975  53.2190  18.5898 0001779 116.9999 243.1175 15.08856390 75132,6917.83,95.437,540.926,538.465,0.0
53975.0,STARLINK-5137,PAYLOAD,2024-02-12 03:06:48,15.0884733,0.0002056,53.2185,15.0155,124.7743,235.3443,-3.9005e-06,-3.5e-06,0.0,0 STARLINK-5137,1 53975U 22125M   24043.12973209 -.00000350  00000-0 -39005-5 0  9999,2 53975  53.2185  15.0155 0002056 124.7743 235.3443 15.08847330 75255,6917.858,95.437,541.145,538.301,0.0
53975.0,STARLINK-5137,PAYLOAD,2024-02-12 07:52:58,15.08848022,0.0001736,53.2196,14.1255,117.7216,242.3953,1.4721e-05,-5.4e-07,0.0,0 STARLINK-5137,1 53975U 22125M   24043.32845171 -.00000054  00000-0  14721-4 0  9994,2 53975  53.2196  14.1255 0001736 117.7216 242.3953 15.08848022 75218,6917.856,95.437,540.922,538.52,0.0
53975.0,STARLINK-5137,PAYLOAD,2024-02-12 22:11:27,15.08833851,0.0001633,53.2186,11.4472,112.4959,247.6206,-7.589e-05,-1.495e-05,0.0,0 STARLINK-5137,1 53975U 22125M   24043.92462402 -.00001495  00000-0 -75890-4 0  9997,2 53975  53.2186  11.4472 0001633 112.4959 247.6206 15.08833851 75303,6917.899,95.438,540.894,538.634,0.0
53975.0,STARLINK-5137,PAYLOAD,2024-02-13 04:33:00,15.08837544,0.0001308,53.2181,10.2659,105.5184,254.5953,-0.0001056,-1.968e-05,0.0,0 STARLINK-5137,1 53975U 22125M   24044.18958358 -.00001968  00000-0 -10560-3 0  9993,2 53975  53.2181  10.2659 0001308 105.5184 254.5953 15.08837544 75415,6917.888,95.438,540.658,538.848,0.0
53975.0,STARLINK-5137,PAYLOAD,2024-02-13 14:05:18,15.08841723,0.0001508,53.2194,8.4817,84.5193,275.5971,-5.3159e-05,-1.134e-05,0.0,0 STARLINK-5137,1 53975U 22125M   24044.58702228 -.00001134  00000-0 -53159-4 0  9997,2 53975  53.2194   8.4817 0001508  84.5193 275.5971 15.08841723 75408,6917.875,95.437,540.783,538.697,0.0
53975.0,STARLINK-5137,PAYLOAD,2024-02-13 22:02:14,15.08842497,0.0001575,53.2191,6.9958,116.0193,244.0961,-2.5589e-05,-6.95e-06,0.0,0 STARLINK-5137,1 53975U 22125M   24044.91822329 -.00000695  00000-0 -25589-4 0  9996,2 53975  53.2191   6.9958 0001575 116.0193 244.0961 15.08842497 75453,6917.873,95.437,540.827,538.648,0.0
53975.0,STARLINK-5137,PAYLOAD,2024-02-14 04:23:46,15.08855288,0.0001602,53.2189,5.8115,118.3299,241.7855,9.0745e-05,1.157e-05,0.0,0 STARLINK-5137,1 53975U 22125M   24045.18317206  .00001157  00000-0  90745-4 0  9997,2 53975  53.2189   5.8115 0001602 118.3299 241.7855 15.08855288 75566,6917.834,95.437,540.807,538.59,0.0
53975.0,STARLINK-5137,PAYLOAD,2024-02-14 13:56:05,15.08848216,0.0001433,53.219,4.0228,83.482,276.6335,1.6233e-05,-3e-07,0.0,0 STARLINK-5137,1 53975U 22125M   24045.58061678 -.00000030  00000-0  16233-4 0  9990,2 53975  53.2190   4.0228 0001433  83.4820 276.6335 15.08848216 75550,6917.855,95.437,540.712,538.729,0.0
53975.0,STARLINK-5137,PAYLOAD,2024-02-14 20:17:39,15.08821835,0.0001806,53.2189,2.8338,84.8197,275.3001,0.00010603,1.399e-05,0.0,0 STARLINK-5137,1 53975U 22125M   24045.84559755  .00001399  00000-0  10603-3 0  9999,2 53975  53.2189   2.8338 0001806  84.8197 275.3001 15.08821835 75668,6917.936,95.439,541.05,538.552,0.0
53975.0,STARLINK-5137,PAYLOAD,2024-02-14 21:53:03,15.08814622,0.0001282,53.2193,2.5365,90.5558,269.5581,-1.5118e-05,-5.28e-06,0.0,0 STARLINK-5137,1 53975U 22125M   24045.91184487 -.00000528  00000-0 -15118-4 0  9995,2 53975  53.2193   2.5365 0001282  90.5558 269.5581 15.08814622 75601,6917.958,95.439,540.71,538.936,0.0
53975.0,STARLINK-5137,PAYLOAD,2024-02-15 04:14:35,15.08826178,0.000134,53.2189,1.3494,101.6392,258.4751,1.5265e-05,-4.5e-07,0.0,0 STARLINK-5137,1 53975U 22125M   24046.17679487 -.00000045  00000-0  15265-4 0  9999,2 53975  53.2189   1.3494 0001340 101.6392 258.4751 15.08826178 75640,6917.923,95.438,540.715,538.861,0.0
53975.0,STARLINK-5137,PAYLOAD,2024-02-15 13:46:53,15.08833405,0.0001362,53.2192,359.5649,96.7872,263.3275,8.4011e-05,1.049e-05,0.0,0 STARLINK-5137,1 53975U 22125M   24046.57423442  .00001049  00000-0  84011-4 0  9990,2 53975  53.2192 359.5649 0001362  96.7872 263.3275 15.08833405 75776,6917.901,95.438,540.708,538.823,0.0
53975.0,STARLINK-5137,PAYLOAD,2024-02-16 04:05:21,15.08849164,0.0001329,53.2173,356.8886,91.1076,269.0068,0.00071709,0.00011146,0.0,0 STARLINK-5137,1 53975U 22125M   24047.17039262  .00011146  00000-0  71709-3 0  9998,2 53975  53.2173 356.8886 0001329  91.1076 269.0068 15.08849164 75868,6917.852,95.437,540.637,538.798,0.0
53975.0,STARLINK-5137,PAYLOAD,2024-02-16 05:40:44,15.08862228,0.0001514,53.2178,356.5925,97.0268,263.0896,0.0010899,0.00017111,0.0,0 STARLINK-5137,1 53975U 22125M   24047.23663034  .00017111  00000-0  10899-2 0  9995,2 53975  53.2178 356.5925 0001514  97.0268 263.0896 15.08862228 75878,6917.812,95.436,540.725,538.63,0.0
53975.0,STARLINK-5137,PAYLOAD,2024-02-16 13:37:40,15.0885633,0.0001762,53.2173,355.1022,81.1679,278.9513,0.00076191,0.00011864,0.0,0 STARLINK-5137,1 53975U 22125M   24047.56783075  .00011864  00000-0  76191-3 0  9996,2 53975  53.2173 355.1022 0001762  81.1679 278.9513 15.08856330 75857,6917.83,95.437,540.914,538.477,0.0
53975.0,STARLINK-5137,PAYLOAD,2024-02-16 19:59:13,15.08823805,0.0002294,53.2172,353.9151,84.0669,276.0585,-0.00044585,-7.374e-05,0.0,0 STARLINK-5137,1 53975U 22125M   24047.83280002 -.00007374  00000-0 -44585-3 0  9993,2 53975  53.2172 353.9151 0002294  84.0669 276.0585 15.08823805 75968,6917.93,95.439,541.382,538.208,0.0
